{
  "links" : {
    "next" : "https://api.nasa.gov/neo/rest/v1/feed?start_date=2012-02-09&end_date=2012-02-09&detailed=true&api_key=t0TVs3DtDT2H8Oy2Zy8m2eVrNsAVKAexjcZXUckd",
    "prev" : "https://api.nasa.gov/neo/rest/v1/feed?start_date=2012-02-07&end_date=2012-02-07&detailed=true&api_key=t0TVs3DtDT2H8Oy2Zy8m2eVrNsAVKAexjcZXUckd",
    "self" : "https://api.nasa.gov/neo/rest/v1/feed?start_date=2012-02-08&end_date=2012-02-08&detailed=true&api_key=t0TVs3DtDT2H8Oy2Zy8m2eVrNsAVKAexjcZXUckd"
  },
  "element_count" : 9,
  "near_earth_objects" : {
    "2012-02-08" : [ {
      "links" : {
        "self" : "https://api.nasa.gov/neo/rest/v1/neo/3333611?api_key=t0TVs3DtDT2H8Oy2Zy8m2eVrNsAVKAexjcZXUckd"
      },
      "neo_reference_id" : "3333611",
      "name" : "(2006 KR1)",
      "nasa_jpl_url" : "http://ssd.jpl.nasa.gov/sbdb.cgi?sstr=3333611",
      "absolute_magnitude_h" : 20.2,
      "estimated_diameter" : {
        "kilometers" : {
          "estimated_diameter_min" : 0.2424124811,
          "estimated_diameter_max" : 0.5420507863
        },
        "meters" : {
          "estimated_diameter_min" : 242.4124811008,
          "estimated_diameter_max" : 542.0507863358
        },
        "miles" : {
          "estimated_diameter_min" : 0.1506280858,
          "estimated_diameter_max" : 0.3368146392
        },
        "feet" : {
          "estimated_diameter_min" : 795.3165644948,
          "estimated_diameter_max" : 1778.3819018419
        }
      },
      "is_potentially_hazardous_asteroid" : false,
      "close_approach_data" : [ {
        "close_approach_date" : "2012-02-08",
        "epoch_date_close_approach" : 1328688000000,
        "relative_velocity" : {
          "kilometers_per_second" : "15.3113551032",
          "kilometers_per_hour" : "55120.8783716874",
          "miles_per_hour" : "34249.9702304521"
        },
        "miss_distance" : {
          "astronomical" : "0.3389137156",
          "lunar" : "131.8374328613",
          "kilometers" : "50700768",
          "miles" : "31503998"
        },
        "orbiting_body" : "Earth"
      } ],
      "orbital_data" : {
        "orbit_id" : "21",
        "orbit_determination_date" : "2017-04-06 09:08:37",
        "orbit_uncertainty" : "0",
        "minimum_orbit_intersection" : ".290366",
        "jupiter_tisserand_invariant" : "5.291",
        "epoch_osculation" : "2458000.5",
        "eccentricity" : ".4040000446498606",
        "semi_major_axis" : "1.162452536720842",
        "inclination" : "19.59186351611007",
        "ascending_node_longitude" : "236.8281978457254",
        "orbital_period" : "457.7846973980998",
        "perihelion_distance" : ".6928216599822781",
        "perihelion_argument" : "176.3365081337601",
        "aphelion_distance" : "1.632083413459406",
        "perihelion_time" : "2458207.276990474854",
        "mean_anomaly" : "197.3914265941203",
        "mean_motion" : ".7863958800853843",
        "equinox" : "J2000"
      }
    }, {
      "links" : {
        "self" : "https://api.nasa.gov/neo/rest/v1/neo/3399923?api_key=t0TVs3DtDT2H8Oy2Zy8m2eVrNsAVKAexjcZXUckd"
      },
      "neo_reference_id" : "3399923",
      "name" : "(2008 AN33)",
      "nasa_jpl_url" : "http://ssd.jpl.nasa.gov/sbdb.cgi?sstr=3399923",
      "absolute_magnitude_h" : 19.0,
      "estimated_diameter" : {
        "kilometers" : {
          "estimated_diameter_min" : 0.4212646106,
          "estimated_diameter_max" : 0.9419763057
        },
        "meters" : {
          "estimated_diameter_min" : 421.2646105562,
          "estimated_diameter_max" : 941.9763057186
        },
        "miles" : {
          "estimated_diameter_min" : 0.2617616123,
          "estimated_diameter_max" : 0.5853167591
        },
        "feet" : {
          "estimated_diameter_min" : 1382.1017848971,
          "estimated_diameter_max" : 3090.4735428537
        }
      },
      "is_potentially_hazardous_asteroid" : false,
      "close_approach_data" : [ {
        "close_approach_date" : "2012-02-08",
        "epoch_date_close_approach" : 1328688000000,
        "relative_velocity" : {
          "kilometers_per_second" : "26.6785168255",
          "kilometers_per_hour" : "96042.660571715",
          "miles_per_hour" : "59677.1742869082"
        },
        "miss_distance" : {
          "astronomical" : "0.4054751567",
          "lunar" : "157.7298431396",
          "kilometers" : "60658224",
          "miles" : "37691272"
        },
        "orbiting_body" : "Earth"
      } ],
      "orbital_data" : {
        "orbit_id" : "25",
        "orbit_determination_date" : "2017-04-06 09:04:45",
        "orbit_uncertainty" : "1",
        "minimum_orbit_intersection" : ".0953438",
        "jupiter_tisserand_invariant" : "3.018",
        "epoch_osculation" : "2458000.5",
        "eccentricity" : ".6928758495318288",
        "semi_major_axis" : "2.574676069039268",
        "inclination" : "10.67241127816867",
        "ascending_node_longitude" : "29.96467841615509",
        "orbital_period" : "1508.975961714885",
        "perihelion_distance" : ".7907452004344157",
        "perihelion_argument" : "27.33149622289015",
        "aphelion_distance" : "4.35860693764412",
        "perihelion_time" : "2457436.477186300339",
        "mean_anomaly" : "134.560270066279",
        "mean_motion" : ".2385723889139201",
        "equinox" : "J2000"
      }
    }, {
      "links" : {
        "self" : "https://api.nasa.gov/neo/rest/v1/neo/3401432?api_key=t0TVs3DtDT2H8Oy2Zy8m2eVrNsAVKAexjcZXUckd"
      },
      "neo_reference_id" : "3401432",
      "name" : "(2008 CS1)",
      "nasa_jpl_url" : "http://ssd.jpl.nasa.gov/sbdb.cgi?sstr=3401432",
      "absolute_magnitude_h" : 20.1,
      "estimated_diameter" : {
        "kilometers" : {
          "estimated_diameter_min" : 0.2538370294,
          "estimated_diameter_max" : 0.5675968529
        },
        "meters" : {
          "estimated_diameter_min" : 253.8370293645,
          "estimated_diameter_max" : 567.5968528656
        },
        "miles" : {
          "estimated_diameter_min" : 0.1577269688,
          "estimated_diameter_max" : 0.3526882241
        },
        "feet" : {
          "estimated_diameter_min" : 832.7986794202,
          "estimated_diameter_max" : 1862.1944587557
        }
      },
      "is_potentially_hazardous_asteroid" : true,
      "close_approach_data" : [ {
        "close_approach_date" : "2012-02-08",
        "epoch_date_close_approach" : 1328688000000,
        "relative_velocity" : {
          "kilometers_per_second" : "15.0600161835",
          "kilometers_per_hour" : "54216.0582606976",
          "miles_per_hour" : "33687.7502009318"
        },
        "miss_distance" : {
          "astronomical" : "0.4290526976",
          "lunar" : "166.9015045166",
          "kilometers" : "64185372",
          "miles" : "39882940"
        },
        "orbiting_body" : "Earth"
      } ],
      "orbital_data" : {
        "orbit_id" : "19",
        "orbit_determination_date" : "2017-04-06 09:04:31",
        "orbit_uncertainty" : "0",
        "minimum_orbit_intersection" : ".0100337",
        "jupiter_tisserand_invariant" : "5.011",
        "epoch_osculation" : "2458000.5",
        "eccentricity" : ".3724502400385711",
        "semi_major_axis" : "1.23060295876024",
        "inclination" : "29.85129875377697",
        "ascending_node_longitude" : "134.1331772294016",
        "orbital_period" : "498.6265039958973",
        "perihelion_distance" : ".7722645913778126",
        "perihelion_argument" : "94.98837774257917",
        "aphelion_distance" : "1.688941326142667",
        "perihelion_time" : "2458052.223992520824",
        "mean_anomaly" : "322.6561421058155",
        "mean_motion" : ".721983282306554",
        "equinox" : "J2000"
      }
    } ]
  }
}